{
  "norad_id": 48783,
  "name": "ONEWEB-0234",
  "history": [
    {
      "epoch": "2026-03-28T22:06:10.663200Z",
      "apogee_km": 1203.094428047465,
      "perigee_km": 1200.4611656470397,
      "latitude_deg": -3.6187909828838667e-06,
      "longitude_deg": 117.31719753881738,
      "height_km": 1204.1071078199668,
      "semi_major_axis_km": 7579.914796847253,
      "eccentricity": 0.0001737,
      "inclination_deg": 87.8929,
      "raan_deg": 275.1961,
      "arg_perigee_deg": 64.6709,
      "mean_anomaly_deg": 295.4601,
      "mean_motion_rev_day": 13.1554672
    },
    {
      "epoch": "2026-03-29T23:39:29.764224Z",
      "apogee_km": 1203.0548780259114,
      "perigee_km": 1200.5004467846802,
      "latitude_deg": 2.768918930288923e-05,
      "longitude_deg": 92.72569243700205,
      "height_km": 1204.111157006067,
      "semi_major_axis_km": 7579.9146624052955,
      "eccentricity": 0.0001685,
      "inclination_deg": 87.8932,
      "raan_deg": 274.9837,
      "arg_perigee_deg": 64.0353,
      "mean_anomaly_deg": 296.0951,
      "mean_motion_rev_day": 13.15546755
    },
    {
      "epoch": "2026-03-30T05:08:03.854400Z",
      "apogee_km": 1203.0475409869368,
      "perigee_km": 1200.5061474732438,
      "latitude_deg": 1.6973248439242162e-05,
      "longitude_deg": 10.313152978542954,
      "height_km": 1204.1130951382354,
      "semi_major_axis_km": 7579.91384423009,
      "eccentricity": 0.00016764,
      "inclination_deg": 87.8932,
      "raan_deg": 274.9381,
      "arg_perigee_deg": 64.0296,
      "mean_anomaly_deg": 296.1007,
      "mean_motion_rev_day": 13.15546968
    },
    {
      "epoch": "2026-03-30T12:26:09.318624Z",
      "apogee_km": 1203.0319203349118,
      "perigee_km": 1200.5231202269888,
      "latitude_deg": -3.0829541882502844e-05,
      "longitude_deg": -99.57037870201874,
      "height_km": 1204.1167604642376,
      "semi_major_axis_km": 7579.91452028095,
      "eccentricity": 0.00016549,
      "inclination_deg": 87.8932,
      "raan_deg": 274.8772,
      "arg_perigee_deg": 63.8164,
      "mean_anomaly_deg": 296.3136,
      "mean_motion_rev_day": 13.15546792
    }
  ]
}